ONEWEB-0027             
1 45432U 20020J   24083.75194240  .00000025  00000+0  31713-4 0  9996
2 45432  87.9249 168.0922 0002264 116.7790 243.3573 13.17647950198976
ONEWEB-0064             
1 45433U 20020K   24083.80169564  .00000502  00000+0  13812-2 0  9992
2 45433  87.9042 183.2075 0001850 114.9130 245.2190 13.11416314195812
ONEWEB-0018             
1 45434U 20020L   24083.83414533 -.00000436  00000+0 -12666-2 0  9999
2 45434  87.9039 183.1937 0001813 102.8600 257.2731 13.11416031195766
ONEWEB-0083             
1 45435U 20020M   24083.82278929 -.00000150  00000+0 -45823-3 0  9991
2 45435  87.9041 183.1761 0001955 108.4060 251.7281 13.11413896195804
ONEWEB-0095             
1 45436U 20020N   24083.81481875  .00000232  00000+0  61977-3 0  9994
2 45436  87.9036 183.2150 0002299 108.3129 251.8249 13.11414726195807
ONEWEB-0092             
1 45437U 20020P   24083.78220650  .00000053  00000+0  11331-3 0  9993
2 45437  87.9043 183.2019 0002257 107.0212 253.1163 13.11419426195917
ONEWEB-0085             
1 45438U 20020Q   24083.81631391  .00000176  00000+0  46164-3 0  9994
2 45438  87.9042 183.2006 0001774 105.7645 254.3678 13.11415533195808
ONEWEB-0096             
1 45439U 20020R   24083.82440512 -.00000081  00000+0 -26502-3 0  9990
2 45439  87.9038 183.1709 0001715  99.9324 260.1998 13.11415280195793
